#dP2021  3  4  6  0  0.00000000      96 __u+U ITR00 EXT  IAC
## 2147 367200.00000000   900.00000000 59277 0.2500000000000
+  116   C06C07C08C09C10C11C12C13C14C16C19C20C21C22C23C24C25
+        C26C27C28C29C30C32C33C34C35C36C37C38C39C40C41C42C43
+        C44C45C46E01E02E03E04E05E07E08E09E11E12E13E14E15E18
+        E19E21E24E25E26E27E30E31E33E36G01G02G03G05G06G07G08
+        G09G10G11G12G13G14G15G16G17G18G19G20G21G22G23G24G25
+        G26G27G28G29G30G31G32J01J02J03R01R02R03R04R05R07R08
+        R09R11R12R13R14R15R16R17R18R19R20R21R22R24  0  0  0
++        10 11 11 10  9  9  9 10 10 11 10  8 10 10 10 10  9
++         8  9  8 10  9 10  9  8 10  9  9 10 11 12  9 10  9
++         9  9 10  9 10  9  8  8  9  9  8  8  8  8 10  9  9
++         8  9  9  9  9  8  9  8  8  9  8  9  8  9  8  9  8
++         8  8  9  9  8  8  8  9  9  8  9  8  8  9  8  8  9
++         8  8  8  8  8  9  8 11 10 12  8 10 10  9  9 10  9
++         9 10  9  9  8  8  9  9  9  9 10  8  9  9  0  0  0
%c M  cc GPS ccc cccc cccc cccc cccc ccccc ccccc ccccc ccccc
%c cc cc ccc ccc cccc cccc cccc cccc ccccc ccccc ccccc ccccc
%f  0.0000000  0.000000000  0.00000000000  0.000000000000000
%f  0.0000000  0.000000000  0.00000000000  0.000000000000000
%i    0    0    0    0      0      0      0      0         0
%i    0    0    0    0      0      0      0      0         0
/* IAC                                ULTRA-RAPID PREDICTION
/* S/V CLOCKS ARE ALIGNED TO GNSS TIME                      
/* G:C1WC2W R:C1PC2P E:C1XC5X C:C2IC6I J:C1CC2S             
/* PCV:IGS14_2134 OL/AL:FES2004  NONE     YN ORB:CoN CLK:CoN
*  2021 03 05  4 45  0.00000000
PC06 -20859.875385  35894.791071   6079.648169    147.076736
PC07  -8567.240641  30929.895807  27824.364432   -386.471089
PC08 -19642.688275  17736.056354 -32816.557017   -904.750781
PC09 -10577.482039  35683.644878  19663.805442    690.997360
PC10   3518.656350  37701.671326  19192.899965    -76.673691
PC11  20100.255456  -2501.783090 -19115.146967   -887.510489
PC12   7580.512585  13866.317350 -22963.843842    841.399211
PC13  -2861.484953  22531.856389 -35411.187022    167.050253
PC14  17281.109111   8029.900219  20432.977844    321.192708
PC16 -18382.657635  36725.905178   9168.130591   -720.709537
PC19 -15609.839448   3103.683662 -22893.420318    750.037527
PC20 -16281.524960 -16324.693673 -15683.774066   -923.883790
PC21   7209.337254  26940.158682  -1242.357564   -868.355264
PC22  -5895.337157  21323.015425 -17019.092883   -903.306851
PC23  12433.889925 -12759.000489 -21479.770436   -876.338283
PC24  24090.228129  11680.609229   7804.975367   -774.561727
PC25  25849.113050  -1870.221761 -10325.228532   -954.958750
PC26   9454.880742  16799.265532  20154.681601    939.942451
PC27   1059.416931 -20130.178550  19291.131243    493.399935
PC28  16705.174241 -21834.196260   4793.352831   -102.231097
PC29 -22109.606253  11579.890641  12470.405129    360.683244
PC30 -15098.014911  -6547.989372  22531.041032    449.871125
PC32  -7366.866097 -26881.486370   1302.430462   -905.551667
PC33  15671.140351  -3082.960303  22892.828002   -951.168489
PC34  15618.275267   5923.211108 -22365.129824   -726.205917
PC35 -16108.312156  22314.489300  -4495.381968   -389.567649
PC36 -26026.821472   1028.370970  10040.644835   -746.238581
PC37  -8199.644773 -17049.564951 -20510.011950   -871.804661
PC38 -16297.137228  21141.872703 -32638.806881    133.846056
PC39 -16130.039457  37884.354453   8768.760668     29.082806
PC40      4.533730  35784.258074  22433.409740    137.733185
PC41   6091.417319 -21130.702220  17234.658158   -930.612378
PC42  16205.638581  16919.495173  15215.620756   -914.193956
PC43  22216.634256 -11039.217056 -12810.981354   -625.180130
PC44   -437.644170  20293.894134 -19138.373191     69.682283
PC45 -12335.499788  12697.636670  21575.720856    378.314834
PC46 -24623.714214 -11142.230012  -7032.309117    377.539126
PE01  24719.999691  14406.943209  -7564.069937  -1058.871823
PE02 -24745.373861 -14348.971548   7653.123415    202.766284
PE03 -15449.913869  -8734.837475 -23688.747577   -405.371399
PE04  16982.001151 -13327.222044  20257.852193   -722.345345
PE05  -4818.808758 -26020.076258 -13261.321292   -299.619754
PE07  -8505.067218  27949.697090  -4781.539703   -508.678968
PE08 -16730.341174  13765.386315 -20172.338262   6037.958711
PE09   8242.611378 -28037.096187   4666.489378   5745.328360
PE11  14496.758060 -18152.022048  18356.560588   6245.013324
PE12  27612.125653 -10676.683068    723.986677   5326.030359
PE13 -14840.025352  18095.019446 -18108.650716    413.064791
PE14   6306.762644 -23422.932308   5431.559740  -1350.861442
PE15 -27556.076097  10770.186233   -729.543770    826.274832
PE18   2670.362345  26613.221429 -17385.358845  -1477.000304
PE19  14490.909677  11197.402066  23258.495164    218.924923
PE21  15727.941428  22712.697503  10608.724653   -651.832999
PE24   3518.430871 -17819.835059 -23394.044806   -775.869947
PE25 -15593.662250 -22743.797046 -10773.298928   -527.738979
PE26   7371.105655  14625.730250 -24646.660725   2078.471152
PE27  -2757.902447  18155.473905  23210.359057     17.135210
PE30 -20035.706103   2138.379356  21677.959243   3132.482550
PE31  19479.460153  -2971.709161 -22082.465212   -478.865927
PE33  24045.414123   2857.912438 -17021.978511   -466.232787
PE36  -6563.980205 -14771.809009  24806.330424    432.502968
PG01   6705.095989  13861.282343 -21927.775980    748.363492
PG02  17282.602108 -14301.023487  14903.475946   -582.992564
PG03  12109.137726  22832.576579  -6438.852057    -99.355614
PG05   2982.610296 -17750.123817  19322.864208    -35.344316
PG06  25660.386920  -5975.335292   3662.102927     -0.616726
PG07  20786.530649   8155.401082  15080.970085     79.415778
PG08  -3996.136193  24940.188165  -7690.674633    -12.536588
PG09  10384.818627  13320.659565  20430.702208   -328.342046
PG10 -19470.098111  -5779.165402 -17143.842821    -74.353578
PG11     92.691053  18508.964979 -19614.702889     -7.733374
PG12  -7536.713025 -23589.552454 -10065.789007     -9.508069
PG13  13138.267904 -23003.362182     60.049311    104.147551
PG14  19460.484835   7490.216426 -16470.076028     99.556054
PG15    689.943194 -25172.276597  -8205.574186   -165.295915
PG16  -6588.839559  15290.880213  20334.785296   -289.208094
PG17  16754.321381  -4683.734105 -19639.169038    404.390522
PG18 -22752.595065  -5976.045873  12383.345298    349.620546
PG19  18148.602975 -12005.783165 -15445.723915    -30.526331
PG20 -21672.759604 -14136.922956  -6647.248959    524.404879
PG21  -2030.045236  15405.665241 -20754.878222    100.582263
PG22   6153.886377  21652.555802 -14032.596640   -667.075367
PG23 -20150.079780 -14930.589207  -8829.719625    118.108477
PG24  -1272.184349 -15900.202839 -21455.595479      1.534235
PG25 -17605.316783 -19914.280416   2389.262490     92.581610
PG26 -14259.708798   7032.382203  21248.696833     53.587260
PG27 -12356.756869  22876.805015   4181.030598    -87.988900
PG28  18077.707820   5641.997772 -17984.025737    606.834587
PG29  -8843.253902 -13570.349280  20998.325605   -306.074053
PG30  26383.750843     79.851812   4035.676779   -393.779552
PG31 -25092.706586   7132.308191   6093.089372   -103.708243
PG32 -17079.687587   6521.449022 -19106.188734     20.500523
PJ01 -19454.251744  28752.178044 -19370.997891   -352.446258
PJ02 -27173.417625  20404.338453  29855.906898      2.819502
PJ03 -34200.646631  24686.627978   6552.779789     -1.346219
PR01  -9139.299853 -19405.071201 -13792.490883     75.929889
PR02 -10781.383056   1423.745158 -23030.918542    469.472022
PR03  -5729.768250  18851.289510 -16125.712104     31.839647
PR04   2522.014254  25378.678864   -219.643644     76.508264
PR05   9244.994701  17734.958708  15830.038320     67.593940
PR07   5504.651861 -19363.686277  15732.391933    -42.516664
PR08  -2491.113068 -25396.314416    310.620517    -57.706003
PR09  22536.623861   3563.919314 -11460.672799    -18.700478
PR11  -7493.757397 -13565.492191 -20251.503098      2.616143
PR12 -21385.795405 -12545.352257  -6032.882325    209.983268
PR13 -22644.630752  -3946.010152  11043.712996    -51.540722
PR14 -10282.690322   7191.057405  22212.547469     61.673695
PR15   7633.934019  13851.201257  20025.031593    105.100307
PR16  21963.388853  11764.606755   5103.256043    -12.072491
PR17 -18770.061818  16475.443072  -5256.745375    405.272675
PR18  -6561.828453  15309.953364 -19277.394958     68.712023
PR19   8282.363407   6806.988880 -23141.773459   -134.454362
PR20  20948.536261  -7405.329963 -12562.458854    -44.505767
PR21  18229.395478 -16621.237137   6452.630621   -192.067986
PR22   5762.822926 -14929.948657  19889.492530   -100.983983
PR24 -21153.289160   7918.674334  11880.132771     33.811761
EOF
